0 FENGYUN 1C DEB
1 38720U 99025ETM 13284.20884257  .00004146  00000-0  25121-2 0   763
2 38720 099.1408 285.9226 0063524 215.0435 144.6892 14.05946249173365
0 FENGYUN 1C DEB
1 38720U 99025ETM 13285.77447937  .00004243  00000-0  25692-2 0   778
2 38720 099.1439 287.5098 0063904 206.8900 152.9019 14.05959939173588
0 FENGYUN 1C DEB
1 38720U 99025ETM 13286.84195391  .00004464  00000-0  27010-2 0   783
2 38720 099.1433 288.5852 0063955 204.9055 154.9233 14.05971525173739
0 FENGYUN 1C DEB
1 38720U 99025ETM 13288.83454472  .00004677  00000-0  28258-2 0   794
2 38720 099.1436 290.5941 0064877 199.6181 160.2640 14.05992099174011
0 FENGYUN 1C DEB
1 38720U 99025ETM 13291.82338640  .00004793  00000-0  28932-2 0   805
2 38720 099.1441 293.6096 0065032 191.1297 168.8481 14.06021450174439
0 FENGYUN 1C DEB
1 38720U 99025ETM 13293.24662350  .00004853  00000-0  29289-2 0   815
2 38720 099.1437 295.0450 0064555 187.4023 172.6256 14.06035985174631
0 FENGYUN 1C DEB
1 38720U 99025ETM 13294.81216675  .00004832  00000-0  29147-2 0   825
2 38720 099.1448 296.6237 0065176 183.2882 176.7929 14.06050958174853
0 FENGYUN 1C DEB
1 38720U 99025ETM 13296.23537421  .00004799  00000-0  28952-2 0   834
2 38720 099.1447 298.0563 0064556 179.5800 180.5428 14.06064623175053
